<?xml version="1.0" encoding="UTF-8"?>
<ndm xmlns:xsi="http://www.w3.org/2001/XMLSchema-instance" xsi:noNamespaceSchemaLocation="https://sanaregistry.org/r/ndmxml_unqualified/ndmxml-2.0.0-master-2.0.xsd">
<omm id="CCSDS_OMM_VERS" version="2.0">
<header><CREATION_DATE/><ORIGINATOR/></header><body><segment><metadata><OBJECT_NAME>ORBCOMM-X</OBJECT_NAME><OBJECT_ID>1991-050C</OBJECT_ID><CENTER_NAME>EARTH</CENTER_NAME><REF_FRAME>TEME</REF_FRAME><TIME_SYSTEM>UTC</TIME_SYSTEM><MEAN_ELEMENT_THEORY>SGP4</MEAN_ELEMENT_THEORY></metadata><data><meanElements><EPOCH>2024-11-27T11:24:25.540704</EPOCH><MEAN_MOTION>14.42939360</MEAN_MOTION><ECCENTRICITY>.0004787</ECCENTRICITY><INCLINATION>98.3719</INCLINATION><RA_OF_ASC_NODE>36.9493</RA_OF_ASC_NODE><ARG_OF_PERICENTER>81.0469</ARG_OF_PERICENTER><MEAN_ANOMALY>279.1263</MEAN_ANOMALY></meanElements><tleParameters><EPHEMERIS_TYPE>0</EPHEMERIS_TYPE><CLASSIFICATION_TYPE>U</CLASSIFICATION_TYPE><NORAD_CAT_ID>21576</NORAD_CAT_ID><ELEMENT_SET_NO>999</ELEMENT_SET_NO><REV_AT_EPOCH>75324</REV_AT_EPOCH><BSTAR>.36473E-3</BSTAR><MEAN_MOTION_DOT>.1177E-4</MEAN_MOTION_DOT><MEAN_MOTION_DDOT>0</MEAN_MOTION_DDOT></tleParameters></data></segment></body></omm>
<omm id="CCSDS_OMM_VERS" version="2.0">
<header><CREATION_DATE/><ORIGINATOR/></header><body><segment><metadata><OBJECT_NAME>ORBCOMM FM01</OBJECT_NAME><OBJECT_ID>1995-017A</OBJECT_ID><CENTER_NAME>EARTH</CENTER_NAME><REF_FRAME>TEME</REF_FRAME><TIME_SYSTEM>UTC</TIME_SYSTEM><MEAN_ELEMENT_THEORY>SGP4</MEAN_ELEMENT_THEORY></metadata><data><meanElements><EPOCH>2024-11-26T20:47:40.357248</EPOCH><MEAN_MOTION>14.85500215</MEAN_MOTION><ECCENTRICITY>.0007342</ECCENTRICITY><INCLINATION>69.9655</INCLINATION><RA_OF_ASC_NODE>217.0283</RA_OF_ASC_NODE><ARG_OF_PERICENTER>270.3965</ARG_OF_PERICENTER><MEAN_ANOMALY>89.6346</MEAN_ANOMALY></meanElements><tleParameters><EPHEMERIS_TYPE>0</EPHEMERIS_TYPE><CLASSIFICATION_TYPE>U</CLASSIFICATION_TYPE><NORAD_CAT_ID>23545</NORAD_CAT_ID><ELEMENT_SET_NO>999</ELEMENT_SET_NO><REV_AT_EPOCH>58241</REV_AT_EPOCH><BSTAR>.20508E-2</BSTAR><MEAN_MOTION_DOT>.17705E-3</MEAN_MOTION_DOT><MEAN_MOTION_DDOT>0</MEAN_MOTION_DDOT></tleParameters></data></segment></body></omm>
<omm id="CCSDS_OMM_VERS" version="2.0">
<header><CREATION_DATE/><ORIGINATOR/></header><body><segment><metadata><OBJECT_NAME>ORBCOMM FM02</OBJECT_NAME><OBJECT_ID>1995-017B</OBJECT_ID><CENTER_NAME>EARTH</CENTER_NAME><REF_FRAME>TEME</REF_FRAME><TIME_SYSTEM>UTC</TIME_SYSTEM><MEAN_ELEMENT_THEORY>SGP4</MEAN_ELEMENT_THEORY></metadata><data><meanElements><EPOCH>2024-11-27T11:20:43.437408</EPOCH><MEAN_MOTION>14.85385123</MEAN_MOTION><ECCENTRICITY>.0009407</ECCENTRICITY><INCLINATION>69.9675</INCLINATION><RA_OF_ASC_NODE>235.2137</RA_OF_ASC_NODE><ARG_OF_PERICENTER>268.3447</ARG_OF_PERICENTER><MEAN_ANOMALY>91.6627</MEAN_ANOMALY></meanElements><tleParameters><EPHEMERIS_TYPE>0</EPHEMERIS_TYPE><CLASSIFICATION_TYPE>U</CLASSIFICATION_TYPE><NORAD_CAT_ID>23546</NORAD_CAT_ID><ELEMENT_SET_NO>999</ELEMENT_SET_NO><REV_AT_EPOCH>58244</REV_AT_EPOCH><BSTAR>.21295E-2</BSTAR><MEAN_MOTION_DOT>.18344E-3</MEAN_MOTION_DOT><MEAN_MOTION_DDOT>0</MEAN_MOTION_DDOT></tleParameters></data></segment></body></omm>
<omm id="CCSDS_OMM_VERS" version="2.0">
<header><CREATION_DATE/><ORIGINATOR/></header><body><segment><metadata><OBJECT_NAME>ORBCOMM FM08</OBJECT_NAME><OBJECT_ID>1997-084A</OBJECT_ID><CENTER_NAME>EARTH</CENTER_NAME><REF_FRAME>TEME</REF_FRAME><TIME_SYSTEM>UTC</TIME_SYSTEM><MEAN_ELEMENT_THEORY>SGP4</MEAN_ELEMENT_THEORY></metadata><data><meanElements><EPOCH>2024-11-26T20:20:36.257568</EPOCH><MEAN_MOTION>14.44394496</MEAN_MOTION><ECCENTRICITY>.0007396</ECCENTRICITY><INCLINATION>45.0133</INCLINATION><RA_OF_ASC_NODE>258.2470</RA_OF_ASC_NODE><ARG_OF_PERICENTER>313.6440</ARG_OF_PERICENTER><MEAN_ANOMALY>46.3797</MEAN_ANOMALY></meanElements><tleParameters><EPHEMERIS_TYPE>0</EPHEMERIS_TYPE><CLASSIFICATION_TYPE>U</CLASSIFICATION_TYPE><NORAD_CAT_ID>25112</NORAD_CAT_ID><ELEMENT_SET_NO>999</ELEMENT_SET_NO><REV_AT_EPOCH>41210</REV_AT_EPOCH><BSTAR>.15917E-2</BSTAR><MEAN_MOTION_DOT>.5399E-4</MEAN_MOTION_DOT><MEAN_MOTION_DDOT>0</MEAN_MOTION_DDOT></tleParameters></data></segment></body></omm>
<omm id="CCSDS_OMM_VERS" version="2.0">
<header><CREATION_DATE/><ORIGINATOR/></header><body><segment><metadata><OBJECT_NAME>ORBCOMM FM10</OBJECT_NAME><OBJECT_ID>1997-084B</OBJECT_ID><CENTER_NAME>EARTH</CENTER_NAME><REF_FRAME>TEME</REF_FRAME><TIME_SYSTEM>UTC</TIME_SYSTEM><MEAN_ELEMENT_THEORY>SGP4</MEAN_ELEMENT_THEORY></metadata><data><meanElements><EPOCH>2024-11-27T11:50:15.796896</EPOCH><MEAN_MOTION>14.44253569</MEAN_MOTION><ECCENTRICITY>.0004916</ECCENTRICITY><INCLINATION>45.0148</INCLINATION><RA_OF_ASC_NODE>257.2122</RA_OF_ASC_NODE><ARG_OF_PERICENTER>289.0349</ARG_OF_PERICENTER><MEAN_ANOMALY>70.9969</MEAN_ANOMALY></meanElements><tleParameters><EPHEMERIS_TYPE>0</EPHEMERIS_TYPE><CLASSIFICATION_TYPE>U</CLASSIFICATION_TYPE><NORAD_CAT_ID>25113</NORAD_CAT_ID><ELEMENT_SET_NO>999</ELEMENT_SET_NO><REV_AT_EPOCH>41235</REV_AT_EPOCH><BSTAR>.15408E-2</BSTAR><MEAN_MOTION_DOT>.5205E-4</MEAN_MOTION_DOT><MEAN_MOTION_DDOT>0</MEAN_MOTION_DDOT></tleParameters></data></segment></body></omm>
<omm id="CCSDS_OMM_VERS" version="2.0">
<header><CREATION_DATE/><ORIGINATOR/></header><body><segment><metadata><OBJECT_NAME>ORBCOMM FM11</OBJECT_NAME><OBJECT_ID>1997-084C</OBJECT_ID><CENTER_NAME>EARTH</CENTER_NAME><REF_FRAME>TEME</REF_FRAME><TIME_SYSTEM>UTC</TIME_SYSTEM><MEAN_ELEMENT_THEORY>SGP4</MEAN_ELEMENT_THEORY></metadata><data><meanElements><EPOCH>2024-11-26T20:12:32.414112</EPOCH><MEAN_MOTION>14.44023415</MEAN_MOTION><ECCENTRICITY>.0005865</ECCENTRICITY><INCLINATION>45.0132</INCLINATION><RA_OF_ASC_NODE>260.6170</RA_OF_ASC_NODE><ARG_OF_PERICENTER>286.1350</ARG_OF_PERICENTER><MEAN_ANOMALY>73.8855</MEAN_ANOMALY></meanElements><tleParameters><EPHEMERIS_TYPE>0</EPHEMERIS_TYPE><CLASSIFICATION_TYPE>U</CLASSIFICATION_TYPE><NORAD_CAT_ID>25114</NORAD_CAT_ID><ELEMENT_SET_NO>999</ELEMENT_SET_NO><REV_AT_EPOCH>41221</REV_AT_EPOCH><BSTAR>.14107E-2</BSTAR><MEAN_MOTION_DOT>.473E-4</MEAN_MOTION_DOT><MEAN_MOTION_DDOT>0</MEAN_MOTION_DDOT></tleParameters></data></segment></body></omm>
<omm id="CCSDS_OMM_VERS" version="2.0">
<header><CREATION_DATE/><ORIGINATOR/></header><body><segment><metadata><OBJECT_NAME>ORBCOMM FM12</OBJECT_NAME><OBJECT_ID>1997-084D</OBJECT_ID><CENTER_NAME>EARTH</CENTER_NAME><REF_FRAME>TEME</REF_FRAME><TIME_SYSTEM>UTC</TIME_SYSTEM><MEAN_ELEMENT_THEORY>SGP4</MEAN_ELEMENT_THEORY></metadata><data><meanElements><EPOCH>2024-11-26T07:43:49.367424</EPOCH><MEAN_MOTION>14.44024632</MEAN_MOTION><ECCENTRICITY>.0004841</ECCENTRICITY><INCLINATION>45.0139</INCLINATION><RA_OF_ASC_NODE>262.8648</RA_OF_ASC_NODE><ARG_OF_PERICENTER>285.5773</ARG_OF_PERICENTER><MEAN_ANOMALY>74.4544</MEAN_ANOMALY></meanElements><tleParameters><EPHEMERIS_TYPE>0</EPHEMERIS_TYPE><CLASSIFICATION_TYPE>U</CLASSIFICATION_TYPE><NORAD_CAT_ID>25115</NORAD_CAT_ID><ELEMENT_SET_NO>999</ELEMENT_SET_NO><REV_AT_EPOCH>41193</REV_AT_EPOCH><BSTAR>.15278E-2</BSTAR><MEAN_MOTION_DOT>.5135E-4</MEAN_MOTION_DOT><MEAN_MOTION_DDOT>0</MEAN_MOTION_DDOT></tleParameters></data></segment></body></omm>
<omm id="CCSDS_OMM_VERS" version="2.0">
<header><CREATION_DATE/><ORIGINATOR/></header><body><segment><metadata><OBJECT_NAME>ORBCOMM FM09</OBJECT_NAME><OBJECT_ID>1997-084E</OBJECT_ID><CENTER_NAME>EARTH</CENTER_NAME><REF_FRAME>TEME</REF_FRAME><TIME_SYSTEM>UTC</TIME_SYSTEM><MEAN_ELEMENT_THEORY>SGP4</MEAN_ELEMENT_THEORY></metadata><data><meanElements><EPOCH>2024-11-27T07:23:57.760224</EPOCH><MEAN_MOTION>14.43962204</MEAN_MOTION><ECCENTRICITY>.0005716</ECCENTRICITY><INCLINATION>45.0144</INCLINATION><RA_OF_ASC_NODE>258.9068</RA_OF_ASC_NODE><ARG_OF_PERICENTER>272.3199</ARG_OF_PERICENTER><MEAN_ANOMALY>87.6997</MEAN_ANOMALY></meanElements><tleParameters><EPHEMERIS_TYPE>0</EPHEMERIS_TYPE><CLASSIFICATION_TYPE>U</CLASSIFICATION_TYPE><NORAD_CAT_ID>25116</NORAD_CAT_ID><ELEMENT_SET_NO>999</ELEMENT_SET_NO><REV_AT_EPOCH>41231</REV_AT_EPOCH><BSTAR>.14316E-2</BSTAR><MEAN_MOTION_DOT>.4796E-4</MEAN_MOTION_DOT><MEAN_MOTION_DDOT>0</MEAN_MOTION_DDOT></tleParameters></data></segment></body></omm>

</ndm>
