ORBCOMM-X               
1 21576U 91050C   24332.47529561  .00001177  00000+0  36473-3 0  9990
2 21576  98.3719  36.9493 0004787  81.0469 279.1263 14.42939360753240
ORBCOMM FM01            
1 23545U 95017A   24331.86643932  .00017705  00000+0  20508-2 0  9991
2 23545  69.9655 217.0283 0007342 270.3965  89.6346 14.85500215582419
ORBCOMM FM02            
1 23546U 95017B   24332.47272497  .00018344  00000+0  21295-2 0  9998
2 23546  69.9675 235.2137 0009407 268.3447  91.6627 14.85385123582445
ORBCOMM FM08            
1 25112U 97084A   24331.84764187  .00005399  00000+0  15917-2 0  9997
2 25112  45.0133 258.2470 0007396 313.6440  46.3797 14.44394496412105
ORBCOMM FM10            
1 25113U 97084B   24332.49323839  .00005205  00000+0  15408-2 0  9996
2 25113  45.0148 257.2122 0004916 289.0349  70.9969 14.44253569412350
ORBCOMM FM11            
1 25114U 97084C   24331.84204183  .00004730  00000+0  14107-2 0  9992
2 25114  45.0132 260.6170 0005865 286.1350  73.8855 14.44023415412215
ORBCOMM FM12            
1 25115U 97084D   24331.32209916  .00005135  00000+0  15278-2 0  9995
2 25115  45.0139 262.8648 0004841 285.5773  74.4544 14.44024632411934
ORBCOMM FM09            
1 25116U 97084E   24332.30830741  .00004796  00000+0  14316-2 0  9995
2 25116  45.0144 258.9068 0005716 272.3199  87.6997 14.43962204412317
